{
  "type": "FeatureCollection",
  "features": [
    {
      "type": "Feature",
      "properties": {
        "norad_id": 38709,
        "name": "EXACTVIEW-1 (ADS-1B)",
        "group": "resource",
        "lat": -73.07520544610712,
        "lon": 124.06830005125717,
        "alt_km": 814.2383792225255,
        "timestamp": "2025-12-10T11:33:53.048161+00:00",
        "meta_object_name": "EXACTVIEW-1 (ADS-1B)",
        "meta_object_id": "2012-039C",
        "meta_epoch": "2025-12-10T03:29:31.562016",
        "meta_mean_motion": 14.24906348,
        "meta_eccentricity": 0.0010804,
        "meta_inclination": 98.9635,
        "meta_ra_of_asc_node": 92.4812,
        "meta_arg_of_pericenter": 1.7537,
        "meta_mean_anomaly": 358.3678,
        "meta_ephemeris_type": 0,
        "meta_classification_type": "U",
        "meta_norad_cat_id": 38709,
        "meta_element_set_no": 999,
        "meta_rev_at_epoch": 69578,
        "meta_bstar": 0.00013636,
        "meta_mean_motion_dot": 2.72e-06,
        "meta_mean_motion_ddot": 0,
        "tle_line1": "1 38709U 12039C   25344.14550419  .00000272  00000+0  13636-3 0  9991",
        "tle_line2": "2 38709  98.9635  92.4812 0010804   1.7537 358.3678 14.24906348695787"
      },
      "geometry": {
        "type": "Point",
        "coordinates": [
          124.06830005125717,
          -73.07520544610712
        ]
      }
    },
    {
      "type": "Feature",
      "properties": {
        "norad_id": 38755,
        "name": "SPOT 6",
        "group": "resource",
        "lat": 38.968009285093395,
        "lon": 42.64541456377731,
        "alt_km": 694.3407257078061,
        "timestamp": "2025-12-10T11:33:53.048172+00:00",
        "meta_object_name": "SPOT 6",
        "meta_object_id": "2012-047A",
        "meta_epoch": "2025-12-10T04:47:56.199264",
        "meta_mean_motion": 14.58599104,
        "meta_eccentricity": 0.000108,
        "meta_inclination": 98.1571,
        "meta_ra_of_asc_node": 49.031,
        "meta_arg_of_pericenter": 97.9485,
        "meta_mean_anomaly": 262.1837,
        "meta_ephemeris_type": 0,
        "meta_classification_type": "U",
        "meta_norad_cat_id": 38755,
        "meta_element_set_no": 999,
        "meta_rev_at_epoch": 70550,
        "meta_bstar": 0.00011957,
        "meta_mean_motion_dot": 5.11e-06,
        "meta_mean_motion_ddot": 0,
        "tle_line1": "1 38755U 12047A   25344.19995601  .00000511  00000+0  11957-3 0  9992",
        "tle_line2": "2 38755  98.1571  49.0310 0001080  97.9485 262.1837 14.58599104705501"
      },
      "geometry": {
        "type": "Point",
        "coordinates": [
          42.64541456377731,
          38.968009285093395
        ]
      }
    },
    {
      "type": "Feature",
      "properties": {
        "norad_id": 39019,
        "name": "PLEIADES 1B",
        "group": "resource",
        "lat": -60.50634972644355,
        "lon": 71.8999961263418,
        "alt_km": 705.6925041876057,
        "timestamp": "2025-12-10T11:33:53.048181+00:00",
        "meta_object_name": "PLEIADES 1B",
        "meta_object_id": "2012-068A",
        "meta_epoch": "2025-12-10T05:15:38.899872",
        "meta_mean_motion": 14.58548734,
        "meta_eccentricity": 0.0001217,
        "meta_inclination": 98.1793,
        "meta_ra_of_asc_node": 56.9105,
        "meta_arg_of_pericenter": 82.0189,
        "meta_mean_anomaly": 278.1148,
        "meta_ephemeris_type": 0,
        "meta_classification_type": "U",
        "meta_norad_cat_id": 39019,
        "meta_element_set_no": 999,
        "meta_rev_at_epoch": 69330,
        "meta_bstar": 0.00012875,
        "meta_mean_motion_dot": 5.53e-06,
        "meta_mean_motion_ddot": 0,
        "tle_line1": "1 39019U 12068A   25344.21920023  .00000553  00000+0  12875-3 0  9994",
        "tle_line2": "2 39019  98.1793  56.9105 0001217  82.0189 278.1148 14.58548734693307"
      },
      "geometry": {
        "type": "Point",
        "coordinates": [
          71.8999961263418,
          -60.50634972644355
        ]
      }
    },
    {
      "type": "Feature",
      "properties": {
        "norad_id": 39030,
        "name": "GOKTURK 2",
        "group": "resource",
        "lat": 17.79688798999501,
        "lon": -176.23948588212352,
        "alt_km": 644.5822395913028,
        "timestamp": "2025-12-10T11:33:53.048192+00:00",
        "meta_object_name": "GOKTURK 2",
        "meta_object_id": "2012-073A",
        "meta_epoch": "2025-12-10T03:20:40.469856",
        "meta_mean_motion": 14.75285962,
        "meta_eccentricity": 9.49e-05,
        "meta_inclination": 97.6891,
        "meta_ra_of_asc_node": 185.9206,
        "meta_arg_of_pericenter": 100.4638,
        "meta_mean_anomaly": 259.6678,
        "meta_ephemeris_type": 0,
        "meta_classification_type": "U",
        "meta_norad_cat_id": 39030,
        "meta_element_set_no": 999,
        "meta_rev_at_epoch": 69663,
        "meta_bstar": 0.00017455,
        "meta_mean_motion_dot": 1.135e-05,
        "meta_mean_motion_ddot": 0,
        "tle_line1": "1 39030U 12073A   25344.13935729  .00001135  00000+0  17455-3 0  9999",
        "tle_line2": "2 39030  97.6891 185.9206 0000949 100.4638 259.6678 14.75285962696634"
      },
      "geometry": {
        "type": "Point",
        "coordinates": [
          -176.23948588212352,
          17.79688798999501
        ]
      }
    },
    {
      "type": "Feature",
      "properties": {
        "norad_id": 39084,
        "name": "LANDSAT 8",
        "group": "resource",
        "lat": 58.733365570713865,
        "lon": -113.6609243515224,
        "alt_km": 696.184705725208,
        "timestamp": "2025-12-10T11:33:53.048202+00:00",
        "meta_object_name": "LANDSAT 8",
        "meta_object_id": "2013-008A",
        "meta_epoch": "2025-12-10T04:25:21.823104",
        "meta_mean_motion": 14.57109886,
        "meta_eccentricity": 0.0001108,
        "meta_inclination": 98.2075,
        "meta_ra_of_asc_node": 52.2954,
        "meta_arg_of_pericenter": 87.4605,
        "meta_mean_anomaly": 272.672,
        "meta_ephemeris_type": 0,
        "meta_classification_type": "U",
        "meta_norad_cat_id": 39084,
        "meta_element_set_no": 999,
        "meta_rev_at_epoch": 67037,
        "meta_bstar": 0.00015024,
        "meta_mean_motion_dot": 6.32e-06,
        "meta_mean_motion_ddot": 0,
        "tle_line1": "1 39084U 13008A   25344.18428036  .00000632  00000+0  15024-3 0  9991",
        "tle_line2": "2 39084  98.2075  52.2954 0001108  87.4605 272.6720 14.57109886670372"
      },
      "geometry": {
        "type": "Point",
        "coordinates": [
          -113.6609243515224,
          58.733365570713865
        ]
      }
    },
    {
      "type": "Feature",
      "properties": {
        "norad_id": 39086,
        "name": "SARAL",
        "group": "resource",
        "lat": -55.581451573808025,
        "lon": -178.874567104046,
        "alt_km": 791.5374848484744,
        "timestamp": "2025-12-10T11:33:53.048212+00:00",
        "meta_object_name": "SARAL",
        "meta_object_id": "2013-009A",
        "meta_epoch": "2025-12-10T03:26:52.810656",
        "meta_mean_motion": 14.32755586,
        "meta_eccentricity": 0.0002818,
        "meta_inclination": 98.5504,
        "meta_ra_of_asc_node": 168.108,
        "meta_arg_of_pericenter": 113.5985,
        "meta_mean_anomaly": 246.5495,
        "meta_ephemeris_type": 0,
        "meta_classification_type": "U",
        "meta_norad_cat_id": 39086,
        "meta_element_set_no": 999,
        "meta_rev_at_epoch": 66853,
        "meta_bstar": 8.9875e-05,
        "meta_mean_motion_dot": 2.01e-06,
        "meta_mean_motion_ddot": 0,
        "tle_line1": "1 39086U 13009A   25344.14366679  .00000201  00000+0  89875-4 0  9992",
        "tle_line2": "2 39086  98.5504 168.1080 0002818 113.5985 246.5495 14.32755586668533"
      },
      "geometry": {
        "type": "Point",
        "coordinates": [
          -178.874567104046,
          -55.581451573808025
        ]
      }
    },
    {
      "type": "Feature",
      "properties": {
        "norad_id": 39150,
        "name": "GAOFEN-1",
        "group": "resource",
        "lat": 81.02001358973558,
        "lon": -6.746626721114776,
        "alt_km": 627.3388282440455,
        "timestamp": "2025-12-10T11:33:53.048222+00:00",
        "meta_object_name": "GAOFEN-1",
        "meta_object_id": "2013-018A",
        "meta_epoch": "2025-12-10T04:40:17.758272",
        "meta_mean_motion": 14.76526652,
        "meta_eccentricity": 0.0018016,
        "meta_inclination": 97.9326,
        "meta_ra_of_asc_node": 54.8987,
        "meta_arg_of_pericenter": 150.8446,
        "meta_mean_anomaly": 209.3774,
        "meta_ephemeris_type": 0,
        "meta_classification_type": "U",
        "meta_norad_cat_id": 39150,
        "meta_element_set_no": 999,
        "meta_rev_at_epoch": 68035,
        "meta_bstar": 0.00015508,
        "meta_mean_motion_dot": 1.033e-05,
        "meta_mean_motion_ddot": 0,
        "tle_line1": "1 39150U 13018A   25344.19464998  .00001033  00000+0  15508-3 0  9997",
        "tle_line2": "2 39150  97.9326  54.8987 0018016 150.8446 209.3774 14.76526652680359"
      },
      "geometry": {
        "type": "Point",
        "coordinates": [
          -6.746626721114776,
          81.02001358973558
        ]
      }
    }
  ]
}